      2.10          N: GNSS NAV DATA                        RINEX VERSION / TYPE
fic2rin                                 05/21/2018 00:13:03 PGM / RUN BY / DATE
                                                            END OF HEADER
28 18  5 20  4  0  0.0 7.166881114244e-04 3.296918293927e-12 0.000000000000e+00
    5.300000000000e+01 8.765625000000e+01 3.840159958076e-09 1.445862126578e+00
    4.362314939499e-06 1.949111663271e-02 6.815418601036e-06 5.153681571960e+03
    1.440000000000e+04-4.842877388000e-08 1.648607279019e+00-5.252659320831e-07
    9.857425473109e-01 2.587187500000e+02-1.520806692709e+00-7.926401595014e-09
    2.303667385565e-10 1.000000000000e+00 2.002000000000e+03 0.000000000000e+00
    3.400000000000e+00 0.000000000000e+00-1.117587089539e-08 5.300000000000e+01
    7.206000000000e+03 4.000000000000e+00
31 18  5 20  4  0  0.0 1.204446889460e-04-2.614797267597e-12 0.000000000000e+00
    1.500000000000e+02 3.878125000000e+01 4.304107854797e-09-2.491212455993e+00
    1.927837729454e-06 8.741238387302e-03 9.933486580849e-06 5.153662656784e+03
    1.440000000000e+04-1.192092895508e-07 5.453156199101e-01-6.332993507385e-08
    9.636076912253e-01 1.907812500000e+02-1.288165492692e-01-7.821754378894e-09
   -5.200216609895e-10 1.000000000000e+00 2.002000000000e+03 0.000000000000e+00
    3.400000000000e+00 0.000000000000e+00-1.350417733192e-08 1.500000000000e+02
    7.206000000000e+03 4.000000000000e+00
31 18  5 20  3 59 44.0 1.204451546073e-04-2.614797267597e-12 0.000000000000e+00
    0.000000000000e+00 3.878125000000e+01 4.304107854797e-09-2.493546135097e+00
    1.927837729454e-06 8.741240482777e-03 9.933486580849e-06 5.153662654877e+03
    1.438400000000e+04-1.192092895508e-07 5.453157223144e-01-6.332993507385e-08
    9.636077029287e-01 1.907812500000e+02-1.288166019342e-01-7.821397221160e-09
   -5.200216609895e-10 1.000000000000e+00 2.002000000000e+03 0.000000000000e+00
    2.400000000000e+00 0.000000000000e+00-1.350417733192e-08 0.000000000000e+00
    1.020600000000e+04 4.000000000000e+00
13 18  5 20  3 59 44.0-9.431596845388e-05 3.410605131648e-13 0.000000000000e+00
    2.600000000000e+01 4.156250000000e+00 4.746626287466e-09-8.244126759142e-01
    2.514570951462e-07 3.386919503100e-03 6.435438990593e-06 5.153653781891e+03
    1.438400000000e+04-8.195638656616e-08-4.129247375270e-01-4.656612873077e-08
    9.686616972192e-01 2.557187500000e+02 1.582225713686e+00-8.161054226381e-09
   -3.317995350682e-10 1.000000000000e+00 2.002000000000e+03 0.000000000000e+00
    2.400000000000e+00 0.000000000000e+00-1.117587089539e-08 2.600000000000e+01
    1.095600000000e+04 4.000000000000e+00
10 18  5 20  3 59 44.0 1.855404116213e-04 1.591615728103e-12 0.000000000000e+00
    1.000000000000e+00-1.634375000000e+01 4.629478550650e-09 2.553846409954e+00
   -7.934868335724e-07 3.516355063766e-03 1.048669219017e-05 5.153665655136e+03
    1.438400000000e+04-8.009374141693e-08-1.582014466853e+00 1.490116119385e-08
    9.606969114197e-01 1.784062500000e+02-2.744862186596e+00-7.870327830745e-09
    4.578762152394e-10 1.000000000000e+00 2.002000000000e+03 0.000000000000e+00
    2.400000000000e+00 0.000000000000e+00 1.862645149231e-09 1.000000000000e+00
    1.383600000000e+04 4.000000000000e+00
13 18  5 20  5 59 44.0-9.431410580873e-05 3.410605131648e-13 0.000000000000e+00
    2.700000000000e+01 6.000000000000e+00 4.826272462192e-09 2.258235102271e-01
    4.600733518600e-07 3.386950585991e-03 6.582587957382e-06 5.153653913498e+03
    2.158400000000e+04 5.401670932770e-08-4.129845035823e-01 6.891787052155e-08
    9.686596798552e-01 2.562812500000e+02 1.582184792942e+00-8.213556413307e-09
   -1.867934949846e-10 1.000000000000e+00 2.002000000000e+03 0.000000000000e+00
    2.400000000000e+00 0.000000000000e+00-1.117587089539e-08 2.700000000000e+01
    1.440600000000e+04 4.000000000000e+00
10 18  5 20  5 59 44.0 1.855520531535e-04 1.591615728103e-12 0.000000000000e+00
    2.000000000000e+01-9.437500000000e+00 4.608049086598e-09-2.679048120833e+00
   -5.532056093216e-07 3.515845863149e-03 1.057423651218e-05 5.153666555405e+03
    2.158400000000e+04-5.774199962616e-08-1.582071312923e+00-4.842877388000e-08
    9.607001459315e-01 1.775312500000e+02-2.744966102056e+00-7.901043395886e-09
    4.800199947595e-10 1.000000000000e+00 2.002000000000e+03 0.000000000000e+00
    2.400000000000e+00 0.000000000000e+00 1.862645149231e-09 2.000000000000e+01
    1.440600000000e+04 4.000000000000e+00
31 18  5 20  5 59 44.0 1.204260624945e-04-2.614797267597e-12 0.000000000000e+00
    2.600000000000e+01 3.771875000000e+01 4.377325190307e-09-1.443444945573e+00
    1.896172761917e-06 8.741106488742e-03 9.581446647644e-06 5.153661468506e+03
    2.158400000000e+04 2.421438694000e-08 5.452584841816e-01-1.098960638046e-07
    9.636040895210e-01 1.984062500000e+02-1.287312479789e-01-7.901757711354e-09
   -4.264463346301e-10 1.000000000000e+00 2.002000000000e+03 0.000000000000e+00
    2.400000000000e+00 0.000000000000e+00-1.350417733192e-08 2.600000000000e+01
    1.440600000000e+04 4.000000000000e+00
 1 18  5 20  6  0  0.0-4.924600943923e-05-2.955857780762e-12 0.000000000000e+00
    3.800000000000e+01-1.179062500000e+02 4.303750697063e-09-5.632979142706e-01
   -5.966052412987e-06 7.781319553033e-03 7.668510079384e-06 5.153673446655e+03
    2.160000000000e+04 1.173466444016e-07-2.621463264776e+00 1.173466444016e-07
    9.713582487643e-01 2.379062500000e+02 6.244884274439e-01-8.097122991959e-09
    3.928735076157e-12 1.000000000000e+00 2.002000000000e+03 0.000000000000e+00
    2.400000000000e+00 0.000000000000e+00 5.587935447693e-09 3.800000000000e+01
    1.440600000000e+04 4.000000000000e+00
 2 18  5 20  6  0  0.0 1.102797687054e-04-1.114131009672e-11 0.000000000000e+00
    2.300000000000e+01-9.225000000000e+01 4.814843414697e-09-2.288374652561e-01
   -4.969537258148e-06 1.787842344493e-02 7.865950465202e-06 5.153744110107e+03
    2.160000000000e+04-2.030283212662e-07-2.682419602801e+00 1.769512891769e-07
    9.504423794087e-01 2.289375000000e+02-1.857238483815e+00-8.532855427679e-09
    1.053615315878e-10 1.000000000000e+00 2.002000000000e+03 0.000000000000e+00
    2.400000000000e+00 0.000000000000e+00-2.048909664154e-08 2.300000000000e+01
    1.440600000000e+04 4.000000000000e+00
 8 18  5 20  6  0  0.0-1.018783077598e-04-1.364242052659e-12 0.000000000000e+00
    3.500000000000e+01-3.937500000000e+00 4.456614207299e-09 1.905229214433e+00
   -2.067536115646e-07 3.483583335765e-03 2.045184373856e-06 5.153568521500e+03
    2.160000000000e+04-2.421438694000e-08 2.597370951154e+00 3.539025783539e-08
    9.693330508067e-01 3.438125000000e+02-4.396194039356e-01-8.353919402846e-09
    9.607543049875e-11 1.000000000000e+00 2.002000000000e+03 0.000000000000e+00
    2.400000000000e+00 0.000000000000e+00 5.122274160385e-09 3.500000000000e+01
    1.440600000000e+04 4.000000000000e+00
 5 18  5 20  6  0  0.0-7.618218660355e-06 6.821210263297e-13 0.000000000000e+00
    6.300000000000e+01-1.656250000000e+01 4.933062624716e-09 2.435604505504e+00
   -8.344650268555e-07 5.361495772377e-03 9.709969162941e-06 5.153707189560e+03
    2.160000000000e+04-9.872019290924e-08-1.600346010961e+00-1.303851604462e-07
    9.475049101256e-01 1.871562500000e+02 6.097826643527e-01-8.015691028563e-09
    4.371610666560e-10 1.000000000000e+00 2.002000000000e+03 0.000000000000e+00
    2.400000000000e+00 0.000000000000e+00-1.117587089539e-08 6.300000000000e+01
    1.440600000000e+04 4.000000000000e+00
 3 18  5 20  6  0  0.0 7.375702261925e-05 7.162270776462e-12 0.000000000000e+00
    9.000000000000e+01-2.609375000000e+01 4.654479592043e-09-1.433841249723e+00
   -1.290813088417e-06 1.380774076097e-03 1.030229032040e-05 5.153756849289e+03
    2.160000000000e+04 5.029141902924e-08-1.578610733393e+00 4.842877388000e-08
    9.606051615865e-01 1.822812500000e+02 4.263772069964e-01-7.929973172356e-09
    5.014494588113e-10 1.000000000000e+00 2.002000000000e+03 0.000000000000e+00
    2.400000000000e+00 0.000000000000e+00 2.328306436539e-09 9.000000000000e+01
    1.440600000000e+04 4.000000000000e+00
11 18  5 20  6  0  0.0-7.359236478806e-04 7.958078640513e-13 0.000000000000e+00
    3.200000000000e+01-9.771875000000e+01 5.960962583733e-09-1.258338471442e+00
   -4.747882485390e-06 1.680698746350e-02 4.349276423454e-06 5.153633367538e+03
    2.160000000000e+04-2.961605787277e-07-3.047754415616e+00 2.756714820862e-07
    9.055505145109e-01 2.701250000000e+02 1.760002682971e+00-9.125380108710e-09
    1.892935991239e-11 1.000000000000e+00 2.002000000000e+03 0.000000000000e+00
    2.400000000000e+00 0.000000000000e+00-1.210719347000e-08 3.200000000000e+01
    1.440600000000e+04 4.000000000000e+00
 7 18  5 20  6  0  0.0 1.889672130346e-04-6.139089236967e-12 0.000000000000e+00
    3.800000000000e+01 2.559375000000e+01 4.459828626906e-09-1.251082747407e+00
    1.199543476105e-06 1.159442437347e-02 9.361654520035e-06 5.153662910461e+03
    2.160000000000e+04 2.887099981308e-07 5.327960503741e-01-1.322478055954e-07
    9.589580050672e-01 1.981562500000e+02-2.533422145441e+00-7.885328455581e-09
   -5.760954252583e-10 1.000000000000e+00 2.002000000000e+03 0.000000000000e+00
    2.400000000000e+00 0.000000000000e+00-1.117587089539e-08 3.800000000000e+01
    1.440600000000e+04 4.000000000000e+00
 6 18  5 20  6  0  0.0 4.022354260087e-04-2.501110429876e-12 0.000000000000e+00
    9.900000000000e+01-1.076562500000e+02 4.266963450441e-09-4.170320789914e-01
   -5.893409252167e-06 1.187811954878e-03 7.431954145432e-06 5.153630237579e+03
    2.160000000000e+04-2.607703208923e-08-2.629791296060e+00-4.656612873077e-08
    9.710797252541e-01 2.406250000000e+02-1.069589041637e+00-7.959260106560e-09
    7.607459738377e-11 1.000000000000e+00 2.002000000000e+03 0.000000000000e+00
    3.400000000000e+00 0.000000000000e+00 4.656612873077e-09 9.900000000000e+01
    1.440600000000e+04 4.000000000000e+00
